{
  "norad_id": 66163,
  "name": "STARLINK-35607",
  "history": [
    {
      "epoch": "2026-03-28T21:52:45.437664",
      "apogee_km": 476.0577402030822,
      "perigee_km": 474.51297880325,
      "latitude_deg": -24.58245695230905,
      "longitude_deg": 163.8171529599931,
      "semi_major_axis_km": 6853.422359503165,
      "eccentricity": 0.0001127,
      "inclination_deg": 53.159,
      "raan_deg": 333.3576,
      "arg_perigee_deg": 101.9807,
      "mean_anomaly_deg": 258.132,
      "mean_motion_rev_day": 15.30176459
    }
  ]
}